#dP2024 11 26 12  0  0.00000000      96 __u+U IGS20 EXT  IAC
## 2342 216000.00000000   900.00000000 60640 0.5000000000000
+   52   G02G03G04G05G06G07G08G09G10G11G12G13G14G15G16G17G18
+        G19G20G21G22G23G24G25G26G27G28G29G30G31G32R01R02R03
+        R04R05R07R08R09R11R12R14R15R16R17R18R19R20R21R22R24
+        R26  0  0  0  0  0  0  0  0  0  0  0  0  0  0  0  0
+          0  0  0  0  0  0  0  0  0  0  0  0  0  0  0  0  0
++         8  8  6  7  7  8  7  7  7  6  7  6  6  7  9  6  7
++         6  7  7  7  9  8  6  7  8  7  7  8  6  6  9  8  8
++         7  8  9  6  8  7  7  8  7  9  6  7  9  7  8  5  8
++         6  0  0  0  0  0  0  0  0  0  0  0  0  0  0  0  0
++         0  0  0  0  0  0  0  0  0  0  0  0  0  0  0  0  0
%c M  cc GPS ccc cccc cccc cccc cccc ccccc ccccc ccccc ccccc
%c cc cc ccc ccc cccc cccc cccc cccc ccccc ccccc ccccc ccccc
%f  0.0000000  0.000000000  0.00000000000  0.000000000000000
%f  0.0000000  0.000000000  0.00000000000  0.000000000000000
%i    0    0    0    0      0      0      0      0         0
%i    0    0    0    0      0      0      0      0         0
/* IAC                                ULTRA-RAPID PREDICTION
/* S/V CLOCKS ARE ALIGNED TO GNSS TIME                      
/* G:C1WC2W R:C1PC2P E:C1XC5X C:C2IC6I J:C1CC2S             
/* PCV:IGS20_2317 OL/AL:FES2004  NONE     YN ORB:CoN CLK:CoN
*  2024 11 26 13 30  0.00000000
PG02 -14632.224182   4758.342851  22101.479260   -305.820605
PG03 -22925.900082  12209.199701   5093.905492    609.953445
PG04 -20565.637493   2713.045721 -16659.000018    485.981384
PG05  19689.345325    -32.879459 -18034.041538   -194.178527
PG06   5488.694208  25407.561730  -5079.660037   -144.564498
PG07  -7753.075087  20781.790917 -13730.902672    -18.086661
PG08 -25420.317450  -5223.741853   6552.146594    423.661940
PG09 -12642.789761  10593.241596 -20922.714755    460.970279
PG10   1790.292696 -17525.233516  19990.435334   -210.666083
PG11  12280.652819  16903.450165 -16394.599105   -751.455131
PG12  23798.469865  -7896.999108   8402.825220   -554.576812
PG13  22702.949549  14018.622168    460.943149    687.609973
PG14  -5742.178795  19199.647173  17361.080812    547.891677
PG15  25641.354162   2059.172789   6390.623888    232.389417
PG16 -16893.062636  -6200.786272 -20027.229563   -118.508099
PG17   3565.705113  17480.189077  20029.076568    543.623030
PG18   6636.173045 -22366.511557 -12448.725519   -660.582859
PG19  14022.872242  18576.192052  13041.045843    567.207641
PG20  11726.879365   9813.622786 -21631.188573    368.408103
PG21 -15969.777507  -3176.133767  21535.647946     96.508877
PG22   1613.688517  16369.540378  21304.449031    -82.246527
PG23  14590.345699 -19620.638734  10117.504767    371.249616
PG24  15388.463568  -2486.215087  21047.439732   -477.867491
PG25  19270.279841 -17763.959189  -3649.966462    498.698437
PG26  -7737.424611 -14194.729884 -21213.556698     12.785021
PG27 -23068.317043 -13127.176372  -3978.108179    -34.576036
PG28  -5460.821175 -25835.369628  -2864.238796   -490.685645
PG29  13863.042375  -8842.270605 -20926.968228   -560.787328
PG30    -64.912105  26126.820055  -3749.774358   -273.951586
PG31 -10909.501872 -20328.411555 -13068.844308   -221.080648
PG32  -8196.013319 -17581.826726  18455.705184   -568.209618
PR01 -21604.599337  -6399.983336  11948.682434    105.693987
PR02 -25039.769866    447.724309  -5006.680988    -39.397292
PR03 -14425.041964   8142.621175 -19380.155583    112.103014
PR04   3608.887128  10802.415247 -22795.865801    265.731417
PR05  19717.420516   8020.938115 -14023.982283    141.293371
PR07  13896.695526  -8316.776455  19722.870629     95.733471
PR08  -4042.527214 -10912.218655  22760.432410     -6.223196
PR09  16022.017969  -9449.935645  17512.430357    222.745710
PR11   6415.450346 -21071.330907 -12873.308531      6.087032
PR12  -7768.629630  -8146.205000 -22869.763903     47.676253
PR14 -14736.489217  20665.438520  -2431.551752     27.290163
PR15  -5220.093158  20453.580577  14329.960080     73.715380
PR16   7576.842644   8185.023043  22942.633067     31.088570
PR17  -3487.783909  14552.826226  20686.302989    143.274649
PR18   6548.197376  23080.312459   8624.278713    173.769309
PR19  12318.972780  21467.432938  -6180.206653   -299.824766
PR20  12465.717325   4219.424712 -21826.760054   -122.408040
PR21   4219.551193 -13566.402682 -21168.589506   -154.552872
PR22  -6668.728845 -23513.406134  -7285.647609    -22.243541
PR24 -12927.125510  -2897.083488  21818.550529    -81.678581
PR26  -2064.277032 -10868.166569  23000.511181   -133.274185
*  2024 11 26 13 45  0.00000000
PG02 -15177.033666   2390.906498  22149.646068   -305.812808
PG03 -22430.226181  11602.393908   7879.711335    609.962270
PG04 -22129.887564   1831.581685 -14670.405365    485.987118
PG05  18150.995929   1416.979862 -19538.561492   -194.179548
PG06   5358.894760  25850.601973  -2201.110646   -144.591322
PG07  -8238.147322  19037.611665 -15788.920175    -18.084972
PG08 -25900.515720  -5659.919152   3825.336687    423.670659
PG09 -14779.330239   9689.901465 -19938.719690    460.985480
PG10   3569.566030 -18763.765816  18529.645542   -210.679421
PG11  12267.640173  18674.638442 -14367.180319   -751.456157
PG12  22976.594844  -7063.949150  10961.009065   -554.578995
PG13  22526.550408  14151.308723  -2400.757494    687.611316
PG14  -7381.510074  20156.532551  15536.623654    547.898801
PG15  26187.760909   2505.200993   3670.292198    232.393505
PG16 -15020.411534  -7482.467235 -21033.423287   -118.499288
PG17   1480.748969  16573.890315  21074.197599    543.609441
PG18   7000.122290 -20833.535456 -14718.452450   -660.582944
PG19  12517.248646  17951.590850  15203.482559    567.211564
PG20  10059.494628  11663.126144 -21565.468695    368.407814
PG21 -16473.310872  -5441.530384  20769.010768     96.508011
PG22   -358.089452  17555.201574  20409.388222    -82.248998
PG23  15490.662205 -20105.442154   7447.695804    371.256677
PG24  15954.662943    -50.865068  20813.079718   -477.865222
PG25  19632.618175 -17664.531232   -816.004084    498.698167
PG26  -5934.046177 -15743.372416 -20655.576240     12.772952
PG27 -22458.427865 -13115.902251  -6719.836033    -34.575927
PG28  -5236.685658 -26038.056286    -13.924565   -490.695888
PG29  15904.450830  -7732.876498 -19897.627894   -560.784572
PG30   -485.368159  25569.717822  -6486.159831   -273.944466
PG31 -10811.957244 -21686.117025 -10674.097030   -221.080029
PG32  -6166.583377 -16888.176659  19839.256488   -568.204612
PR01 -19967.373534  -6273.755689  14574.901850    105.695125
PR02 -25473.078401    607.390797  -1822.038912    -39.397300
PR03 -16707.056687   8172.926179 -17447.922253    112.103562
PR04    769.520443  10663.466805 -23132.960726    265.732828
PR05  17841.002267   7798.956475 -16452.837415    141.293840
PR07  16212.188642  -8336.455962  17850.178992     95.734023
PR08  -1226.397321 -10797.982957  23135.072649     -6.223236
PR09  14845.405529  -7509.527217  19383.347846    222.747600
PR11   7039.796979 -22350.520666 -10092.167005      6.086305
PR12  -6329.130871 -10539.968117 -22328.460346     47.676576
PR14 -14383.848682  20299.311577  -5581.023695     27.290258
PR15  -5966.829486  21876.195176  11691.584563     73.714933
PR16   6146.699113  10587.789999  22377.500877     31.088754
PR17  -4649.430811  12194.981325  21941.221863    143.277599
PR18   6140.832586  21891.751041  11541.360544    173.770908
PR19  12753.911468  21890.460596  -3000.985206   -299.825983
PR20  13659.815353   6553.306666 -20493.755769   -122.408246
PR21   5393.219304 -11148.517770 -22286.167514   -154.555823
PR22  -6315.284817 -22477.149510 -10252.897975    -22.254536
PR24 -14202.502338  -5175.140404  20565.263082    -81.680011
PR26    777.130514 -10786.760462  23119.345658   -133.273983
EOF
